{"type": "FeatureCollection", "features": [ {"type": "Feature", "properties": {"norad_id": 66898, "name": "STARLINK-36065", "group": "last-30-days", "lat": 43.44407742401013, "lon": -163.71877254385726, "alt_km": 298.88227165765875, "timestamp": "2025-12-15T04:01:19.182119+00:00", "meta": {"OBJECT_NAME": "STARLINK-36065", "OBJECT_ID": "2025-283W", "EPOCH": "2025-12-14T06:00:02.999808", "MEAN_MOTION": 15.91621094, "ECCENTRICITY": 8.976e-05, "INCLINATION": 53.1544, "RA_OF_ASC_NODE": 66.1989, "ARG_OF_PERICENTER": 82.5701, "MEAN_ANOMALY": 182.1539, "EPHEMERIS_TYPE": 0, "CLASSIFICATION_TYPE": "U", "NORAD_CAT_ID": 66898, "ELEMENT_SET_NO": 999, "REV_AT_EPOCH": 267, "BSTAR": -0.004703096, "MEAN_MOTION_DOT": -0.01560533, "MEAN_MOTION_DDOT": 0.00068543722}, "tle": {"line1": "1 66898U 25283W   25348.25003472 -.01560533  68544-3 -47031-2 0  9994", "line2": "2 66898  53.1544  66.1989 0000897  82.5701 182.1539 15.91621094  2679"}}, "geometry": {"type": "Point", "coordinates": [-163.71877254385726, 43.44407742401013]}}, {"type": "Feature", "properties": {"norad_id": 66899, "name": "STARLINK-36064", "group": "last-30-days", "lat": 41.92490450809779, "lon": -160.8028440480803, "alt_km": 299.0364908975007, "timestamp": "2025-12-15T04:01:19.182129+00:00", "meta": {"OBJECT_NAME": "STARLINK-36064", "OBJECT_ID": "2025-283X", "EPOCH": "2025-12-14T06:00:02.999808", "MEAN_MOTION": 15.91652586, "ECCENTRICITY": 9.577e-05, "INCLINATION": 53.1543, "RA_OF_ASC_NODE": 66.1937, "ARG_OF_PERICENTER": 81.2122, "MEAN_ANOMALY": 186.0451, "EPHEMERIS_TYPE": 0, "CLASSIFICATION_TYPE": "U", "NORAD_CAT_ID": 66899, "ELEMENT_SET_NO": 999, "REV_AT_EPOCH": 261, "BSTAR": -0.0047089425, "MEAN_MOTION_DOT": -0.01564968, "MEAN_MOTION_DDOT": 0.00068922051}, "tle": {"line1": "1 66899U 25283X   25348.25003472 -.01564968  68922-3 -47089-2 0  9994", "line2": "2 66899  53.1543  66.1937 0000957  81.2122 186.0451 15.91652586  2612"}}, "geometry": {"type": "Point", "coordinates": [-160.8028440480803, 41.92490450809779]}}, {"type": "Feature", "properties": {"norad_id": 66900, "name": "STARLINK-36074", "group": "last-30-days", "lat": 40.253265779462694, "lon": -157.889078411791, "alt_km": 299.2841570452192, "timestamp": "2025-12-15T04:01:19.182139+00:00", "meta": {"OBJECT_NAME": "STARLINK-36074", "OBJECT_ID": "2025-283Y", "EPOCH": "2025-12-14T06:00:02.999808", "MEAN_MOTION": 15.91685265, "ECCENTRICITY": 8.63e-05, "INCLINATION": 53.1544, "RA_OF_ASC_NODE": 66.1881, "ARG_OF_PERICENTER": 83.1736, "MEAN_ANOMALY": 186.7494, "EPHEMERIS_TYPE": 0, "CLASSIFICATION_TYPE": "U", "NORAD_CAT_ID": 66900, "ELEMENT_SET_NO": 999, "REV_AT_EPOCH": 267, "BSTAR": -0.0047162142, "MEAN_MOTION_DOT": -0.01569956, "MEAN_MOTION_DDOT": 0.00069347086}, "tle": {"line1": "1 66900U 25283Y   25348.25003472 -.01569956  69347-3 -47162-2 0  9993", "line2": "2 66900  53.1544  66.1881 0000863  83.1736 186.7494 15.91685265  2672"}}, "geometry": {"type": "Point", "coordinates": [-157.889078411791, 40.253265779462694]}}, {"type": "Feature", "properties": {"norad_id": 66901, "name": "STARLINK-36043", "group": "last-30-days", "lat": 38.73194393012323, "lon": -155.45575222679116, "alt_km": 299.42853024148553, "timestamp": "2025-12-15T04:01:19.182149+00:00", "meta": {"OBJECT_NAME": "STARLINK-36043", "OBJECT_ID": "2025-283Z", "EPOCH": "2025-12-14T06:00:02.999808", "MEAN_MOTION": 15.91722082, "ECCENTRICITY": 9.628e-05, "INCLINATION": 53.1546, "RA_OF_ASC_NODE": 66.1832, "ARG_OF_PERICENTER": 84.4944, "MEAN_ANOMALY": 187.7568, "EPHEMERIS_TYPE": 0, "CLASSIFICATION_TYPE": "U", "NORAD_CAT_ID": 66901, "ELEMENT_SET_NO": 999, "REV_AT_EPOCH": 267, "BSTAR": -0.0047447185, "MEAN_MOTION_DOT": -0.01582305, "MEAN_MOTION_DDOT": 0.00070375351}, "tle": {"line1": "1 66901U 25283Z   25348.25003472 -.01582305  70375-3 -47447-2 0  9996", "line2": "2 66901  53.1546  66.1832 0000962  84.4944 187.7568 15.91722082  2678"}}, "geometry": {"type": "Point", "coordinates": [-155.45575222679116, 38.73194393012323]}}, {"type": "Feature", "properties": {"norad_id": 66902, "name": "STARLINK-35983", "group": "last-30-days", "lat": 36.81987241985878, "lon": -152.63954541515167, "alt_km": 299.7562749288727, "timestamp": "2025-12-15T04:01:19.182164+00:00", "meta": {"OBJECT_NAME": "STARLINK-35983", "OBJECT_ID": "2025-283AA", "EPOCH": "2025-12-14T06:00:02.999808", "MEAN_MOTION": 15.91755568, "ECCENTRICITY": 7.795e-05, "INCLINATION": 53.1544, "RA_OF_ASC_NODE": 66.1776, "ARG_OF_PERICENTER": 87.4787, "MEAN_ANOMALY": 187.6088, "EPHEMERIS_TYPE": 0, "CLASSIFICATION_TYPE": "U", "NORAD_CAT_ID": 66902, "ELEMENT_SET_NO": 999, "REV_AT_EPOCH": 267, "BSTAR": -0.0047495086, "MEAN_MOTION_DOT": -0.01586569, "MEAN_MOTION_DDOT": 0.00070746382}, "tle": {"line1": "1 66902U 25283AA  25348.25003472 -.01586569  70746-3 -47495-2 0  9998", "line2": "2 66902  53.1544  66.1776 0000779  87.4787 187.6088 15.91755568  2679"}}, "geometry": {"type": "Point", "coordinates": [-152.63954541515167, 36.81987241985878]}}, {"type": "Feature", "properties": {"norad_id": 66903, "name": "STARLINK-36077", "group": "last-30-days", "lat": 35.226499560231446, "lon": -150.4640634173119, "alt_km": 299.9628969416681, "timestamp": "2025-12-15T04:01:19.182174+00:00", "meta": {"OBJECT_NAME": "STARLINK-36077", "OBJECT_ID": "2025-283AB", "EPOCH": "2025-12-14T06:00:02.999808", "MEAN_MOTION": 15.91790268, "ECCENTRICITY": 7.864e-05, "INCLINATION": 53.1547, "RA_OF_ASC_NODE": 66.1728, "ARG_OF_PERICENTER": 84.5249, "MEAN_ANOMALY": 192.8312, "EPHEMERIS_TYPE": 0, "CLASSIFICATION_TYPE": "U", "NORAD_CAT_ID": 66903, "ELEMENT_SET_NO": 999, "REV_AT_EPOCH": 267, "BSTAR": -0.0047526603, "MEAN_MOTION_DOT": -0.01590423, "MEAN_MOTION_DDOT": 0.00071085863}, "tle": {"line1": "1 66903U 25283AB  25348.25003472 -.01590423  71086-3 -47527-2 0  9997", "line2": "2 66903  53.1547  66.1728 0000786  84.5249 192.8312 15.91790268  2673"}}, "geometry": {"type": "Point", "coordinates": [-150.4640634173119, 35.226499560231446]}}, {"type": "Feature", "properties": {"norad_id": 66904, "name": "STARLINK-36059", "group": "last-30-days", "lat": 33.508672976078415, "lon": -148.26685482392406, "alt_km": 300.1913018199766, "timestamp": "2025-12-15T04:01:19.182186+00:00", "meta": {"OBJECT_NAME": "STARLINK-36059", "OBJECT_ID": "2025-283AC", "EPOCH": "2025-12-14T06:00:02.999808", "MEAN_MOTION": 15.9182818, "ECCENTRICITY": 7.368e-05, "INCLINATION": 53.1543, "RA_OF_ASC_NODE": 66.1675, "ARG_OF_PERICENTER": 88.1925, "MEAN_ANOMALY": 191.5623, "EPHEMERIS_TYPE": 0, "CLASSIFICATION_TYPE": "U", "NORAD_CAT_ID": 66904, "ELEMENT_SET_NO": 999, "REV_AT_EPOCH": 267, "BSTAR": -0.0047708939, "MEAN_MOTION_DOT": -0.01599537, "MEAN_MOTION_DDOT": 0.0007186116}, "tle": {"line1": "1 66904U 25283AC  25348.25003472 -.01599537  71861-3 -47709-2 0  9996", "line2": "2 66904  53.1543  66.1675 0000736  88.1925 191.5623 15.91828180  2673"}}, "geometry": {"type": "Point", "coordinates": [-148.26685482392406, 33.508672976078415]}}, {"type": "Feature", "properties": {"norad_id": 66905, "name": "STARLINK-36075", "group": "last-30-days", "lat": 31.97869878513001, "lon": -146.41912803356587, "alt_km": 300.34485225773005, "timestamp": "2025-12-15T04:01:19.182196+00:00", "meta": {"OBJECT_NAME": "STARLINK-36075", "OBJECT_ID": "2025-283AD", "EPOCH": "2025-12-14T06:00:02.999808", "MEAN_MOTION": 15.91865911, "ECCENTRICITY": 8.279e-05, "INCLINATION": 53.1545, "RA_OF_ASC_NODE": 66.1634, "ARG_OF_PERICENTER": 87.6378, "MEAN_ANOMALY": 194.1947, "EPHEMERIS_TYPE": 0, "CLASSIFICATION_TYPE": "U", "NORAD_CAT_ID": 66905, "ELEMENT_SET_NO": 999, "REV_AT_EPOCH": 267, "BSTAR": -0.0047864336, "MEAN_MOTION_DOT": -0.01607786, "MEAN_MOTION_DDOT": 0.00072569218}, "tle": {"line1": "1 66905U 25283AD  25348.25003472 -.01607786  72569-3 -47864-2 0  9991", "line2": "2 66905  53.1545  66.1634 0000827  87.6378 194.1947 15.91865911  2679"}}, "geometry": {"type": "Point", "coordinates": [-146.41912803356587, 31.97869878513001]}}, {"type": "Feature", "properties": {"norad_id": 66906, "name": "1998-067XS", "group": "last-30-days", "lat": -42.51421776530735, "lon": 83.79161869923196, "alt_km": 418.8026215614964, "timestamp": "2025-12-15T04:01:19.182207+00:00", "meta": {"OBJECT_NAME": "1998-067XS", "OBJECT_ID": "1998-067XS", "EPOCH": "2025-12-14T03:31:53.110272", "MEAN_MOTION": 15.5066238, "ECCENTRICITY": 0.00034792, "INCLINATION": 51.6304, "RA_OF_ASC_NODE": 135.4381, "ARG_OF_PERICENTER": 209.6903, "MEAN_ANOMALY": 150.3889, "EPHEMERIS_TYPE": 0, "CLASSIFICATION_TYPE": "U", "NORAD_CAT_ID": 66906, "ELEMENT_SET_NO": 999, "REV_AT_EPOCH": 183, "BSTAR": 0.00050586866, "MEAN_MOTION_DOT": 0.0002921, "MEAN_MOTION_DDOT": 0}, "tle": {"line1": "1 66906U 98067XS  25348.14714248  .00029210  00000+0  50587-3 0  9991", "line2": "2 66906  51.6304 135.4381 0003479 209.6903 150.3889 15.50662380  1837"}}, "geometry": {"type": "Point", "coordinates": [83.79161869923196, -42.51421776530735]}}, {"type": "Feature", "properties": {"norad_id": 66907, "name": "1998-067XT", "group": "last-30-days", "lat": -27.246811036470824, "lon": 106.24515516357316, "alt_km": 414.70515923494077, "timestamp": "2025-12-15T04:01:19.182217+00:00", "meta": {"OBJECT_NAME": "1998-067XT", "OBJECT_ID": "1998-067XT", "EPOCH": "2025-12-14T03:26:43.609056", "MEAN_MOTION": 15.5166553, "ECCENTRICITY": 0.0004243, "INCLINATION": 51.6301, "RA_OF_ASC_NODE": 135.4146, "ARG_OF_PERICENTER": 234.9835, "MEAN_ANOMALY": 125.0757, "EPHEMERIS_TYPE": 0, "CLASSIFICATION_TYPE": "U", "NORAD_CAT_ID": 66907, "ELEMENT_SET_NO": 999, "REV_AT_EPOCH": 183, "BSTAR": 0.0011319513, "MEAN_MOTION_DOT": 0.00068696, "MEAN_MOTION_DDOT": 0}, "tle": {"line1": "1 66907U 98067XT  25348.14356029  .00068696  00000+0  11320-2 0  9993", "line2": "2 66907  51.6301 135.4146 0004243 234.9835 125.0757 15.51665530  1833"}}, "geometry": {"type": "Point", "coordinates": [106.24515516357316, -27.246811036470824]}}]}